[
    {
        "Altitude(m)": 605470.775334067,
        "Argument of Periapsis(deg)": 0.0,
        "Eccentricity": 0.0,
        "Inclination(deg)": 60.0,
        "Latitude(deg)": 27.988158533759783,
        "Longitude(deg)": 22.262887308980652,
        "Mean Anomaly(deg)": -212.7273,
        "RAAN(deg)": 320.0,
        "Satellite Name": "Test1 1417",
        "Satellite Number": 1417,
        "Semi-Major Axis(m)": 6980739.136638005,
        "Time(s)": 0
    },
    {
        "Altitude(m)": 605395.8136110012,
        "Argument of Periapsis(deg)": 0.00010418945913296404,
        "Eccentricity": 0.0,
        "Inclination(deg)": 60.0,
        "Latitude(deg)": 27.473849926533713,
        "Longitude(deg)": 22.61607622510486,
        "Mean Anomaly(deg)": -212.10719385453817,
        "RAAN(deg)": 319.9995799508602,
        "Satellite Name": "Test1 1417",
        "Satellite Number": 1417,
        "Semi-Major Axis(m)": 6980739.136638005,
        "Time(s)": 10
    }
]